NORAD_CAT_ID,OBJECT_NAME,OBJECT_TYPE,EPOCH,MEAN_MOTION,ECCENTRICITY,INCLINATION,RA_OF_ASC_NODE,ARG_OF_PERICENTER,MEAN_ANOMALY,BSTAR,MEAN_MOTION_DOT,MEAN_MOTION_DDOT,TLE_LINE0,TLE_LINE1,TLE_LINE2,SEMIMAJOR_AXIS,PERIOD,APOGEE,PERIGEE,DECAYED
56779.0,STARLINK-6231,PAYLOAD,2023-10-02 19:20:23,15.69933908,0.0003457,69.997,63.1701,273.1169,86.9631,1.037e-05,1.035e-05,0.0,0 STARLINK-6231,1 56779U 23078N   23275.80582521  .00001035  00000-0  10370-4 0  9998,2 56779  69.9970  63.1701 0003457 273.1169  86.9631 15.69933908 19851,6737.223,91.724,361.417,356.759,0.0
56779.0,STARLINK-6231,PAYLOAD,2023-10-03 02:59:09,15.6992111,0.0003035,69.9981,62.2733,271.0838,89.001,-2.4191e-06,-5.03e-06,0.0,0 STARLINK-6231,1 56779U 23078N   23276.12441943 -.00000503  00000-0 -24191-5 0  9994,2 56779  69.9981  62.2733 0003035 271.0838  89.0010 15.69921110 19903,6737.26,91.724,361.169,357.08,0.0
56779.0,STARLINK-6231,PAYLOAD,2023-10-03 13:41:25,15.69913937,0.0003612,69.9967,61.0212,262.9691,97.1094,1.5954e-05,1.705e-05,0.0,0 STARLINK-6231,1 56779U 23078N   23276.57043852  .00001705  00000-0  15954-4 0  9999,2 56779  69.9967  61.0212 0003612 262.9691  97.1094 15.69913937 19712,6737.28,91.725,361.579,356.712,0.0
56779.0,STARLINK-6231,PAYLOAD,2023-10-03 19:48:25,15.69924361,0.0003984,69.9976,60.3038,272.2867,87.7872,4.0271e-05,4.632e-05,0.0,0 STARLINK-6231,1 56779U 23078N   23276.82529557  .00004632  00000-0  40271-4 0  9990,2 56779  69.9976  60.3038 0003984 272.2867  87.7872 15.69924361 19757,6737.25,91.724,361.8,356.431,0.0
56779.0,STARLINK-6231,PAYLOAD,2023-10-04 12:37:42,15.69925833,0.0004164,69.9964,58.332,275.3244,84.7476,2.7897e-06,1.22e-06,0.0,0 STARLINK-6231,1 56779U 23078N   23277.52618206  .00000122  00000-0  27897-5 0  9998,2 56779  69.9964  58.3320 0004164 275.3244  84.7476 15.69925833 19863,6737.246,91.724,361.917,356.306,0.0
56779.0,STARLINK-6231,PAYLOAD,2023-10-04 18:44:42,15.69925154,0.0003521,69.9967,57.616,272.7275,87.3518,5.7433e-07,-1.44e-06,0.0,0 STARLINK-6231,1 56779U 23078N   23277.78104950 -.00000144  00000-0  57433-6 0  9997,2 56779  69.9967  57.6160 0003521 272.7275  87.3518 15.69925154 20168,6737.248,91.724,361.485,356.741,0.0
56779.0,STARLINK-6231,PAYLOAD,2023-10-05 13:05:44,15.69919844,0.0003468,69.9966,55.4668,271.1296,88.9502,7.8053e-06,7.26e-06,0.0,0 STARLINK-6231,1 56779U 23078N   23278.54565279  .00000726  00000-0  78053-5 0  9992,2 56779  69.9966  55.4668 0003468 271.1296  88.9502 15.69919844 20026,6737.263,91.724,361.465,356.792,0.0
56779.0,STARLINK-6231,PAYLOAD,2023-10-05 19:12:44,15.69922022,0.0003425,69.9972,54.7501,269.4905,90.5899,9.9432e-06,9.83e-06,0.0,0 STARLINK-6231,1 56779U 23078N   23278.80051850  .00000983  00000-0  99432-5 0  9995,2 56779  69.9972  54.7501 0003425 269.4905  90.5899 15.69922022 20324,6737.257,91.724,361.43,356.815,0.0
56779.0,STARLINK-6231,PAYLOAD,2023-10-06 10:30:14,15.69940148,0.00029,69.9968,52.9584,255.796,104.2913,3.2103e-05,3.651e-05,0.0,0 STARLINK-6231,1 56779U 23078N   23279.43766980  .00003651  00000-0  32103-4 0  9998,2 56779  69.9968  52.9584 0002900 255.7960 104.2913 15.69940148 20426,6737.205,91.723,361.024,357.116,0.0
56779.0,STARLINK-6231,PAYLOAD,2023-10-06 12:02:02,15.69908109,0.0003182,69.9968,52.7794,259.9162,100.1675,-4.328e-06,-7.33e-06,0.0,0 STARLINK-6231,1 56779U 23078N   23279.50141213 -.00000733  00000-0 -43280-5 0  9991,2 56779  69.9968  52.7794 0003182 259.9162 100.1675 15.69908109 20173,6737.297,91.725,361.306,357.018,0.0
56779.0,STARLINK-6231,PAYLOAD,2023-10-06 18:09:01,15.69921226,0.0003174,69.9987,52.063,267.9793,92.104,1.0065e-05,9.98e-06,0.0,0 STARLINK-6231,1 56779U 23078N   23279.75627045  .00000998  00000-0  10065-4 0  9995,2 56779  69.9987  52.0630 0003174 267.9793  92.1040 15.69921226 20470,6737.259,91.724,361.263,356.986,0.0
56779.0,STARLINK-6231,PAYLOAD,2023-10-07 10:58:18,15.699098,0.0003241,69.9979,50.093,266.5543,93.5282,-7.7501e-06,-1.144e-05,0.0,0 STARLINK-6231,1 56779U 23078N   23280.45716300 -.00001144  00000-0 -77501-5 0  9992,2 56779  69.9979  50.0930 0003241 266.5543  93.5282 15.69909800 20584,6737.292,91.725,361.341,356.974,0.0
56779.0,STARLINK-6231,PAYLOAD,2023-10-07 12:30:04,15.69909338,0.0003239,69.9981,49.914,266.0777,94.0048,-9.1672e-06,-1.314e-05,0.0,0 STARLINK-6231,1 56779U 23078N   23280.52088083 -.00001314  00000-0 -91672-5 0  9994,2 56779  69.9981  49.9140 0003239 266.0777  94.0048 15.69909338 20333,6737.293,91.725,361.341,356.976,0.0
56779.0,STARLINK-6231,PAYLOAD,2023-10-07 18:37:04,15.69914281,0.0002923,69.9993,49.1984,266.2782,93.8079,-2.8558e-06,-5.56e-06,0.0,0 STARLINK-6231,1 56779U 23078N   23280.77574571 -.00000556  00000-0 -28558-5 0  9993,2 56779  69.9993  49.1984 0002923 266.2782  93.8079 15.69914281 20379,6737.279,91.725,361.114,357.175,0.0
56779.0,STARLINK-6231,PAYLOAD,2023-10-08 02:15:48,15.69933254,0.0003897,69.9984,48.3009,273.5534,86.5215,1.328e-05,1.385e-05,0.0,0 STARLINK-6231,1 56779U 23078N   23281.09431266  .00001385  00000-0  13280-4 0  9996,2 56779  69.9984  48.3009 0003897 273.5534  86.5215 15.69933254 20681,6737.225,91.724,361.715,356.464,0.0
56779.0,STARLINK-6231,PAYLOAD,2023-10-08 11:26:19,15.69937955,0.0003637,69.9979,47.2267,266.1863,93.8916,-1.1802e-05,-1.633e-05,0.0,0 STARLINK-6231,1 56779U 23078N   23281.47661608 -.00001633  00000-0 -11802-4 0  9999,2 56779  69.9979  47.2267 0003637 266.1863  93.8916 15.69937955 20483,6737.212,91.723,361.527,356.626,0.0
56779.0,STARLINK-6231,PAYLOAD,2023-10-08 17:33:19,15.69937795,0.0003386,69.9975,46.5096,268.8936,91.1871,-9.8443e-06,-1.397e-05,0.0,0 STARLINK-6231,1 56779U 23078N   23281.73148113 -.00001397  00000-0 -98443-5 0  9993,2 56779  69.9975  46.5096 0003386 268.8936  91.1871 15.69937795 20520,6737.212,91.723,361.358,356.796,0.0
56779.0,STARLINK-6231,PAYLOAD,2023-10-08 20:36:51,15.69912864,0.0002794,69.998,46.1523,276.1177,83.97,1.2662e-05,1.309e-05,0.0,0 STARLINK-6231,1 56779U 23078N   23281.85892889  .00001309  00000-0  12662-4 0  9991,2 56779  69.9980  46.1523 0002794 276.1177  83.9700 15.69912864 20809,6737.283,91.725,361.031,357.266,0.0
56779.0,STARLINK-6231,PAYLOAD,2023-10-09 11:54:22,15.69917676,0.0002628,69.9989,44.3588,265.816,94.2735,8.0321e-06,7.53e-06,0.0,0 STARLINK-6231,1 56779U 23078N   23282.49609338  .00000753  00000-0  80321-5 0  9997,2 56779  69.9989  44.3588 0002628 265.8160  94.2735 15.69917676 20643,6737.27,91.725,360.905,357.364,0.0
56779.0,STARLINK-6231,PAYLOAD,2023-10-09 18:01:22,15.69918959,0.0003412,69.9985,43.6444,268.9507,91.1298,2.5143e-05,2.811e-05,0.0,0 STARLINK-6231,1 56779U 23078N   23282.75095692  .00002811  00000-0  25143-4 0  9995,2 56779  69.9985  43.6444 0003412 268.9507  91.1298 15.69918959 20941,6737.266,91.724,361.43,356.832,0.0
56779.0,STARLINK-6231,PAYLOAD,2023-10-09 19:33:06,15.69931654,0.0003731,69.9976,43.4646,267.3381,92.7387,3.3877e-05,3.864e-05,0.0,0 STARLINK-6231,1 56779U 23078N   23282.81466395  .00003864  00000-0  33877-4 0  9996,2 56779  69.9976  43.4646 0003731 267.3381  92.7387 15.69931654 20695,6737.23,91.724,361.608,356.581,0.0
56779.0,STARLINK-6231,PAYLOAD,2023-10-10 10:50:39,15.69911413,0.000422,69.9971,41.6731,283.3881,76.6844,-1.0073e-05,-1.424e-05,0.0,0 STARLINK-6231,1 56779U 23078N   23283.45185166 -.00001424  00000-0 -10073-4 0  9996,2 56779  69.9971  41.6731 0004220 283.3881  76.6844 15.69911413 21053,6737.287,91.725,361.996,356.309,0.0
56779.0,STARLINK-6231,PAYLOAD,2023-10-10 18:29:24,15.69919977,0.000295,69.9987,40.7789,260.0839,100.0024,6.7513e-06,5.99e-06,0.0,0 STARLINK-6231,1 56779U 23078N   23283.77042806  .00000599  00000-0  67513-5 0  9996,2 56779  69.9987  40.7789 0002950 260.0839 100.0024 15.69919977 21107,6737.263,91.724,361.115,357.14,0.0
56779.0,STARLINK-6231,PAYLOAD,2023-10-10 20:01:08,15.69937251,0.000342,69.9984,40.5996,279.8944,80.1865,2.7916e-05,3.147e-05,0.0,0 STARLINK-6231,1 56779U 23078N   23283.83412951  .00003147  00000-0  27916-4 0  9999,2 56779  69.9984  40.5996 0003420 279.8944  80.1865 15.69937251 20857,6737.214,91.723,361.383,356.774,0.0
56779.0,STARLINK-6231,PAYLOAD,2023-10-11 11:18:41,15.69921774,0.0003598,69.9988,38.8083,270.5488,89.5295,1.7485e-06,-3e-08,0.0,0 STARLINK-6231,1 56779U 23078N   23284.47131247 -.00000003  00000-0  17485-5 0  9996,2 56779  69.9988  38.8083 0003598 270.5488  89.5295 15.69921774 21219,6737.258,91.724,361.547,356.699,0.0
56779.0,STARLINK-6231,PAYLOAD,2023-10-11 14:22:11,15.69922438,0.0003794,69.9985,38.4499,268.6477,91.4284,2.1557e-06,4.6e-07,0.0,0 STARLINK-6231,1 56779U 23078N   23284.59874467  .00000046  00000-0  21557-5 0  9998,2 56779  69.9985  38.4499 0003794 268.6477  91.4284 15.69922438 20977,6737.256,91.724,361.677,356.565,0.0
56779.0,STARLINK-6231,PAYLOAD,2023-10-11 17:25:41,15.69930236,0.000361,69.9988,38.0918,267.3755,92.7027,1.2021e-05,1.233e-05,0.0,0 STARLINK-6231,1 56779U 23078N   23284.72617338  .00001233  00000-0  12021-4 0  9999,2 56779  69.9988  38.0918 0003610 267.3755  92.7027 15.69930236 21250,6737.234,91.724,361.531,356.666,0.0
56779.0,STARLINK-6231,PAYLOAD,2023-10-12 10:14:57,15.69916707,0.0003306,69.9995,36.1218,265.7521,94.3297,2.965e-05,3.353e-05,0.0,0 STARLINK-6231,1 56779U 23078N   23285.42705973  .00003353  00000-0  29650-4 0  9991,2 56779  69.9995  36.1218 0003306 265.7521  94.3297 15.69916707 21361,6737.272,91.725,361.365,356.91,0.0
56779.0,STARLINK-6231,PAYLOAD,2023-10-12 16:21:58,15.69918321,0.000337,69.9995,35.4052,267.37,92.711,2.8682e-05,3.237e-05,0.0,0 STARLINK-6231,1 56779U 23078N   23285.68192717  .00003237  00000-0  28682-4 0  9990,2 56779  69.9995  35.4052 0003370 267.3700  92.7110 15.69918321 21143,6737.268,91.725,361.403,356.862,0.0
56779.0,STARLINK-6231,PAYLOAD,2023-10-13 10:43:00,15.69910703,0.0003763,69.9992,33.2555,274.6864,85.3902,7.3929e-06,6.76e-06,0.0,0 STARLINK-6231,1 56779U 23078N   23286.44653724  .00000676  00000-0  73929-5 0  9994,2 56779  69.9992  33.2555 0003763 274.6864  85.3902 15.69910703 21527,6737.289,91.725,361.69,356.619,0.0
